[{"OBJECT_NAME":"STARLINK-35543","OBJECT_ID":"2025-243AA","EPOCH":"2026-03-09T17:57:19.423872","MEAN_MOTION":15.3019953,"ECCENTRICITY":7.178e-5,"INCLINATION":53.1595,"RA_OF_ASC_NODE":244.9114,"ARG_OF_PERICENTER":68.6154,"MEAN_ANOMALY":291.4924,"EPHEMERIS_TYPE":0,"CLASSIFICATION_TYPE":"U","NORAD_CAT_ID":66201,"ELEMENT_SET_NO":999,"REV_AT_EPOCH":2066,"BSTAR":0.00075235931,"MEAN_MOTION_DOT":0.00021989,"MEAN_MOTION_DDOT":0},{"OBJECT_NAME":"KUIPER-00184","OBJECT_ID":"2025-301G","EPOCH":"2026-03-09T22:00:01.999584","MEAN_MOTION":15.32782365,"ECCENTRICITY":0.00116958,"INCLINATION":51.8667,"RA_OF_ASC_NODE":64.5953,"ARG_OF_PERICENTER":53.2996,"MEAN_ANOMALY":333.7065,"EPHEMERIS_TYPE":0,"CLASSIFICATION_TYPE":"U","NORAD_CAT_ID":67139,"ELEMENT_SET_NO":999,"REV_AT_EPOCH":554,"BSTAR":-0.036844053,"MEAN_MOTION_DOT":-0.01088594,"MEAN_MOTION_DDOT":0}]
